              M50 Cartesian                         J2K Cartesian  
    -----------------------------------       --------------------------------
     X    =       -6594792.25                 X    =        -1932034.60
     Y    =      -17808861.04  feet           Y    =        -5450182.75  meter
     Z    =      -11623500.04                 Z    =        -3552417.64
     XDOT =      14193.246208                 XDOT =        4354.491555
     YDOT =     -14758.454429  feet/sec       YDOT =       -4449.840621  meter/sec
     ZDOT =      14582.066621                 ZDOT =        4465.698495
 
              TDR Cartesian                         TDR Cartesian  
    -----------------------------------       --------------------------------
     X    =      -12620117.44                 X    =        -3846611.80
     Y    =       14157493.30  feet           Y    =         4315203.96  meter
     Z    =      -11664072.55                 Z    =        -3555209.31
     XDOT =     -18633.683402                 XDOT =       -5679.546701
     YDOT =      -4538.958917  feet/sec       YDOT =       -1383.474678  meter/sec
     ZDOT =      14674.453504                 ZDOT =        4472.773428
  
  
    The mean element set is posted at the UTC for which position is
    just north of the next ascending node relative to the above
    vector time
 
 
    TWO LINE MEAN ELEMENT SET
  
    ISS
    1 25544U 98067A   16124.72138485  .00016717  00000-0  10270-3 0  9144
    2 25544  51.6420 279.8531 0001625  89.2179 270.9160 15.54401667 38066
  
  
    Satellite: ISS
    Catalog Number: 25544
    Epoch time:      16124.72138485   =   yrday.fracday
    Element set:     914
    Inclination:       51.6420  deg
    RA of node:       279.8531  deg
    Eccentricity:     .0001625     
    Arg of perigee:    89.2179  deg
    Mean anomaly:     270.9160  deg
    Mean motion:   15.54401667  rev/day
    Decay rate:    1.67170E-04  rev/day^2
    Epoch rev:            3806
    Checksum:              314
 
 
    Coasting Arc #16 (Orbit 3821)
    ---------------------------------------
 
    Vector Time (GMT): 2016/125/17:08:00.000
    Vector Time (MET): N/A
    Weight (LBS)     : 945238.6
 
              M50 Cartesian                         M50 Keplerian  
    -----------------------------------       --------------------------------
     X    =        1155705.41                 A    =         6786802.13  meter
     Y    =        6373744.85  meter          E    =           .0015466
     Z    =        2001574.22                 I    =           51.28918
     XDOT =      -4633.926787                 Wp   =          109.06629
     YDOT =       2589.007312  meter/sec      RA   =          274.06101  deg
     ZDOT =      -5538.562321                 TA   =           48.70282
                                              MA   =           48.56977
                                              Ha   =            221.137  n.mi
                                              Hp   =            213.605
 
              M50 Cartesian                         J2K Cartesian  
    -----------------------------------       --------------------------------
     X    =        3791684.42                 X    =         1074623.74
     Y    =       20911236.38  feet           Y    =         6386215.44  meter
     Z    =        6566844.55                 Z    =         2006991.26
     XDOT =     -15203.171874                 XDOT =       -4635.628853
     YDOT =       8494.118478  feet/sec       YDOT =        2537.177927  meter/sec
     ZDOT =     -18171.136225                 ZDOT =       -5561.077434
 
              TDR Cartesian                         TDR Cartesian  
    -----------------------------------       --------------------------------
     X    =       16433513.72                 X    =         5008934.98
     Y    =      -13464851.99  feet           Y    =        -4104086.89  meter
     Z    =        6589196.67                 Z    =         2008387.15
     XDOT =      13785.642976                 XDOT =        4201.863979
     YDOT =       7836.414812  feet/sec       YDOT =        2388.539235  meter/sec
     ZDOT =     -18269.378018                 ZDOT =       -5568.506420
  
  
    The mean element set is posted at the UTC for which position is
    just north of the next ascending node relative to the above
    vector time
 
 
    TWO LINE MEAN ELEMENT SET
  
    ISS
    1 25544U 98067A   16125.75004202  .00016717  00000-0  10270-3 0  9158
    2 25544  51.6422 274.7231 0001651  87.8413 272.2928 15.54410514 38229
  
  
    Satellite: ISS
    Catalog Number: 25544
    Epoch time:      16125.75004202   =   yrday.fracday
    Element set:     915
    Inclination:       51.6422  deg
    RA of node:       274.7231  deg
    Eccentricity:     .0001651     
    Arg of perigee:    87.8413  deg
    Mean anomaly:     272.2928  deg
    Mean motion:   15.54410514  rev/day
    Decay rate:    1.67170E-04  rev/day^2
    Epoch rev:            3822
    Checksum:              281
 
             </PRE>
           </TD>
        </TR>
    </TABLE>
    
    <table align="center" border="0" width="600" cellpadding="0" cellspacing="0">
      <tr>
        <td align="center" valign="top"><hr size="1" width="600" noshade="noshade" />
        <font face="Arial,helvetica" size="-2">Curator: <a href="/cgi-bin/comment.cgi?jsc-hsfwebma@mail.nasa.gov">Kim 
          Dismukes</a> | Responsible NASA Official: <a href="/cgi-bin/comment.cgi?jsc-hsfwebma@mail.nasa.gov">Amiko Kauderer</a> | Updated: 06/08/2009<br />
        <a href="http://www.nasa.gov/about/highlights/HP_Privacy.html">Privacy Policy and Important Notices</a></font></td>
      </tr>
    </table>
    </body>
    </html>
